{
  "type": "FeatureCollection",
  "features": [
    {
      "type": "Feature",
      "properties": {
        "norad_id": 31441,
        "name": "FENGYUN 1C DEB",
        "group": "fengyun-1c-debris",
        "lat": 22.395103075935218,
        "lon": 31.94843814990331,
        "alt_km": 718.0959150111257,
        "timestamp": "2025-12-11T10:53:16.169999+00:00",
        "meta_object_name": "FENGYUN 1C DEB",
        "meta_object_id": "1999-025BUD",
        "meta_epoch": "2025-12-07T08:28:41.429856",
        "meta_mean_motion": 14.7453624,
        "meta_eccentricity": 0.01049906,
        "meta_inclination": 99.3118,
        "meta_ra_of_asc_node": 203.3613,
        "meta_arg_of_pericenter": 352.0587,
        "meta_mean_anomaly": 7.8951,
        "meta_ephemeris_type": 0,
        "meta_classification_type": "U",
        "meta_norad_cat_id": 31441,
        "meta_element_set_no": 999,
        "meta_rev_at_epoch": 64011,
        "meta_bstar": 0.0080507132,
        "meta_mean_motion_dot": 0.0005895,
        "meta_mean_motion_ddot": 0,
        "tle_line1": "1 31441U 99025BUD 25341.35325729  .00058950  00000+0  80507-2 0  9997",
        "tle_line2": "2 31441  99.3118 203.3613 0104990 352.0587   7.8951 14.74536240640115"
      },
      "geometry": {
        "type": "Point",
        "coordinates": [
          31.94843814990331,
          22.395103075935218
        ]
      }
    },
    {
      "type": "Feature",
      "properties": {
        "norad_id": 31442,
        "name": "FENGYUN 1C DEB",
        "group": "fengyun-1c-debris",
        "lat": -18.27833214041686,
        "lon": 74.2909801838588,
        "alt_km": 736.9794097922095,
        "timestamp": "2025-12-11T10:53:16.170012+00:00",
        "meta_object_name": "FENGYUN 1C DEB",
        "meta_object_id": "1999-025BUE",
        "meta_epoch": "2025-12-10T11:31:37.831008",
        "meta_mean_motion": 14.3392245,
        "meta_eccentricity": 0.00792158,
        "meta_inclination": 98.5305,
        "meta_ra_of_asc_node": 70.4894,
        "meta_arg_of_pericenter": 19.4196,
        "meta_mean_anomaly": 340.9978,
        "meta_ephemeris_type": 0,
        "meta_classification_type": "U",
        "meta_norad_cat_id": 31442,
        "meta_element_set_no": 999,
        "meta_rev_at_epoch": 97328,
        "meta_bstar": 0.00052575283,
        "meta_mean_motion_dot": 1.474e-05,
        "meta_mean_motion_ddot": 0,
        "tle_line1": "1 31442U 99025BUE 25344.48029897  .00001474  00000+0  52575-3 0  9996",
        "tle_line2": "2 31442  98.5305  70.4894 0079215  19.4196 340.9978 14.33922450973284"
      },
      "geometry": {
        "type": "Point",
        "coordinates": [
          74.2909801838588,
          -18.27833214041686
        ]
      }
    },
    {
      "type": "Feature",
      "properties": {
        "norad_id": 31443,
        "name": "FENGYUN 1C DEB",
        "group": "fengyun-1c-debris",
        "lat": -21.115612162569654,
        "lon": 88.4055299852501,
        "alt_km": 808.3764424986139,
        "timestamp": "2025-12-11T10:53:16.170024+00:00",
        "meta_object_name": "FENGYUN 1C DEB",
        "meta_object_id": "1999-025BUF",
        "meta_epoch": "2025-12-07T12:29:55.144032",
        "meta_mean_motion": 14.48576855,
        "meta_eccentricity": 0.01922111,
        "meta_inclination": 99.2106,
        "meta_ra_of_asc_node": 80.5241,
        "meta_arg_of_pericenter": 113.7036,
        "meta_mean_anomaly": 248.4452,
        "meta_ephemeris_type": 0,
        "meta_classification_type": "U",
        "meta_norad_cat_id": 31443,
        "meta_element_set_no": 999,
        "meta_rev_at_epoch": 66866,
        "meta_bstar": 0.0023218128,
        "meta_mean_motion_dot": 0.00010992,
        "meta_mean_motion_ddot": 0,
        "tle_line1": "1 31443U 99025BUF 25341.52077713  .00010992  00000+0  23218-2 0  9995",
        "tle_line2": "2 31443  99.2106  80.5241 0192211 113.7036 248.4452 14.48576855668665"
      },
      "geometry": {
        "type": "Point",
        "coordinates": [
          88.4055299852501,
          -21.115612162569654
        ]
      }
    },
    {
      "type": "Feature",
      "properties": {
        "norad_id": 31444,
        "name": "FENGYUN 1C DEB",
        "group": "fengyun-1c-debris",
        "lat": -33.03393780771451,
        "lon": 101.50549731079796,
        "alt_km": 699.9048893452018,
        "timestamp": "2025-12-11T10:53:16.170035+00:00",
        "meta_object_name": "FENGYUN 1C DEB",
        "meta_object_id": "1999-025BUG",
        "meta_epoch": "2025-12-08T13:18:21.037824",
        "meta_mean_motion": 14.69793542,
        "meta_eccentricity": 0.0062632,
        "meta_inclination": 98.9278,
        "meta_ra_of_asc_node": 284.2035,
        "meta_arg_of_pericenter": 85.0243,
        "meta_mean_anomaly": 275.8106,
        "meta_ephemeris_type": 0,
        "meta_classification_type": "U",
        "meta_norad_cat_id": 31444,
        "meta_element_set_no": 999,
        "meta_rev_at_epoch": 97427,
        "meta_bstar": 0.0020662,
        "meta_mean_motion_dot": 0.0001267,
        "meta_mean_motion_ddot": 0,
        "tle_line1": "1 31444U 99025BUG 25342.55441016  .00012670  00000+0  20662-2 0  9996",
        "tle_line2": "2 31444  98.9278 284.2035 0062632  85.0243 275.8106 14.69793542974274"
      },
      "geometry": {
        "type": "Point",
        "coordinates": [
          101.50549731079796,
          -33.03393780771451
        ]
      }
    },
    {
      "type": "Feature",
      "properties": {
        "norad_id": 31447,
        "name": "FENGYUN 1C DEB",
        "group": "fengyun-1c-debris",
        "lat": 71.16537058509999,
        "lon": -125.66605659813125,
        "alt_km": 851.7485849976865,
        "timestamp": "2025-12-11T10:53:16.170045+00:00",
        "meta_object_name": "FENGYUN 1C DEB",
        "meta_object_id": "1999-025BUK",
        "meta_epoch": "2025-12-08T20:00:32.884416",
        "meta_mean_motion": 14.24029872,
        "meta_eccentricity": 0.02304586,
        "meta_inclination": 98.9916,
        "meta_ra_of_asc_node": 23.9949,
        "meta_arg_of_pericenter": 6.4135,
        "meta_mean_anomaly": 353.9906,
        "meta_ephemeris_type": 0,
        "meta_classification_type": "U",
        "meta_norad_cat_id": 31447,
        "meta_element_set_no": 999,
        "meta_rev_at_epoch": 64796,
        "meta_bstar": 0.00031342384,
        "meta_mean_motion_dot": 8.95e-06,
        "meta_mean_motion_ddot": 0,
        "tle_line1": "1 31447U 99025BUK 25342.83371394  .00000895  00000+0  31342-3 0  9995",
        "tle_line2": "2 31447  98.9916  23.9949 0230458   6.4135 353.9906 14.24029872647966"
      },
      "geometry": {
        "type": "Point",
        "coordinates": [
          -125.66605659813125,
          71.16537058509999
        ]
      }
    },
    {
      "type": "Feature",
      "properties": {
        "norad_id": 31448,
        "name": "FENGYUN 1C DEB",
        "group": "fengyun-1c-debris",
        "lat": 76.15960756334552,
        "lon": -145.84655870930933,
        "alt_km": 803.9898507024673,
        "timestamp": "2025-12-11T10:53:16.170056+00:00",
        "meta_object_name": "FENGYUN 1C DEB",
        "meta_object_id": "1999-025BUL",
        "meta_epoch": "2025-12-08T18:30:03.962016",
        "meta_mean_motion": 14.27794903,
        "meta_eccentricity": 0.00587895,
        "meta_inclination": 98.5002,
        "meta_ra_of_asc_node": 354.1694,
        "meta_arg_of_pericenter": 215.8716,
        "meta_mean_anomaly": 143.8511,
        "meta_ephemeris_type": 0,
        "meta_classification_type": "U",
        "meta_norad_cat_id": 31448,
        "meta_element_set_no": 999,
        "meta_rev_at_epoch": 64247,
        "meta_bstar": 0.0012322494,
        "meta_mean_motion_dot": 3.059e-05,
        "meta_mean_motion_ddot": 0,
        "tle_line1": "1 31448U 99025BUL 25342.77087919  .00003059  00000+0  12322-2 0  9997",
        "tle_line2": "2 31448  98.5002 354.1694 0058789 215.8716 143.8511 14.27794903642477"
      },
      "geometry": {
        "type": "Point",
        "coordinates": [
          -145.84655870930933,
          76.15960756334552
        ]
      }
    },
    {
      "type": "Feature",
      "properties": {
        "norad_id": 31449,
        "name": "FENGYUN 1C DEB",
        "group": "fengyun-1c-debris",
        "lat": 57.67098775269523,
        "lon": 30.222328521934376,
        "alt_km": 858.9896017763731,
        "timestamp": "2025-12-11T10:53:16.170066+00:00",
        "meta_object_name": "FENGYUN 1C DEB",
        "meta_object_id": "1999-025BUM",
        "meta_epoch": "2025-12-10T21:12:43.510752",
        "meta_mean_motion": 14.33705066,
        "meta_eccentricity": 0.0144053,
        "meta_inclination": 98.5553,
        "meta_ra_of_asc_node": 43.4188,
        "meta_arg_of_pericenter": 274.279,
        "meta_mean_anomaly": 84.1945,
        "meta_ephemeris_type": 0,
        "meta_classification_type": "U",
        "meta_norad_cat_id": 31449,
        "meta_element_set_no": 999,
        "meta_rev_at_epoch": 97610,
        "meta_bstar": 0.00033048,
        "meta_mean_motion_dot": 9.81e-06,
        "meta_mean_motion_ddot": 0,
        "tle_line1": "1 31449U 99025BUM 25344.88383693  .00000981  00000+0  33048-3 0  9990",
        "tle_line2": "2 31449  98.5553  43.4188 0144053 274.2790  84.1945 14.33705066976103"
      },
      "geometry": {
        "type": "Point",
        "coordinates": [
          30.222328521934376,
          57.67098775269523
        ]
      }
    }
  ]
}